ONEWEB-0521             
1 54139U 22138AC  26160.12643118  .00000023  00000+0  25749-4 0  9994
2 54139  87.9174 306.5603 0002029  92.5400 267.5965 13.19725076175707
ONEWEB-0522             
1 54140U 22138AD  26160.10589774  .00000033  00000+0  49911-4 0  9999
2 54140  87.9174 306.5666 0001668  94.8951 265.2372 13.19724535175742
ONEWEB-0523             
1 54141U 22138AE  26160.30212467  .00000051  00000+0  93635-4 0  9996
2 54141  87.9194 276.0117 0002732 104.2468 255.8969 13.20770914178260
ONEWEB-0524             
1 54142U 22138AF  26160.29202776  .00000105  00000+0  22691-3 0  9990
2 54142  87.9191 276.0109 0002376 121.2295 238.9072 13.20770952178269
ONEWEB-0525             
1 54143U 22138AG  26160.12484806  .00000068  00000+0  13632-3 0  9992
2 54143  87.9169 306.5711 0001483 100.5236 259.6064 13.19724794175760
ONEWEB-0526             
1 54144U 22138AH  26160.15802211 -.00000005  00000+0 -45124-4 0  9995
2 54144  87.9173 306.5646 0001722 100.2944 259.8383 13.19725251175745
ONEWEB-0529             
1 54145U 22138AJ  26160.16117439 -.00000020  00000+0 -83320-4 0  9995
2 54145  87.9165 306.5737 0001591  98.0715 262.0599 13.19723915175764
ONEWEB-0531             
1 54146U 22138AK  26160.27857213  .00000073  00000+0  14698-3 0  9996
2 54146  87.9188 276.0115 0002736 110.1714 249.9714 13.20771362178260
ONEWEB-0535             
1 54147U 22138AL  26160.11852837  .00000048  00000+0  87005-4 0  9992
2 54147  87.9171 306.5658 0002155  96.6961 263.4417 13.19724931175773
ONEWEB-0536             
1 54148U 22138AM  26160.26509129  .00000079  00000+0  16224-3 0  9990
2 54148  87.9176 276.0375 0002789 114.2033 245.9392 13.20770801178258
ONEWEB-0527             
1 54642U 22166A   26160.30354743  .00038465  00000+0  94490-1 0  9994
2 54642  87.9254 245.5655 0002144  94.0990 266.0388 13.20544078170490
ONEWEB-0528             
1 54643U 22166B   26160.30481201 -.00000052  00000+0 -15712-3 0  9990
2 54643  87.9255 245.5677 0001775 102.3086 257.8247 13.21668901170501
ONEWEB-0539             
1 54644U 22166C   26160.26721226  .00000094  00000+0  19577-3 0  9997
2 54644  87.9264 245.5466 0002052  93.7292 266.4077 13.21826581170494
ONEWEB-0540             
1 54645U 22166D   26160.27407512  .00000102  00000+0  21517-3 0  9995
2 54645  87.9258 245.5761 0002069  96.1899 263.9470 13.21826471170480
ONEWEB-0542             
1 54646U 22166E   26160.27729965  .00000032  00000+0  46595-4 0  9991
2 54646  87.9264 245.5430 0002091  91.4277 268.7096 13.21826968170493
ONEWEB-0545             
1 54647U 22166F   26160.24197089  .00000014  00000+0  31388-5 0  9990
2 54647  87.9254 245.5623 0002274  87.2927 272.8467 13.21828140170453
