[{"OBJECT_NAME":"ONEWEB-0521","OBJECT_ID":"2022-138AC","EPOCH":"2026-06-09T03:02:03.653952","MEAN_MOTION":13.19725076,"ECCENTRICITY":0.0002029,"INCLINATION":87.9174,"RA_OF_ASC_NODE":306.5603,"ARG_OF_PERICENTER":92.54,"MEAN_ANOMALY":267.5965,"EPHEMERIS_TYPE":0,"CLASSIFICATION_TYPE":"U","NORAD_CAT_ID":54139,"ELEMENT_SET_NO":999,"REV_AT_EPOCH":17570,"BSTAR":2.5749e-05,"MEAN_MOTION_DOT":2.3e-07,"MEAN_MOTION_DDOT":0.0},{"OBJECT_NAME":"ONEWEB-0522","OBJECT_ID":"2022-138AD","EPOCH":"2026-06-09T02:32:29.564736","MEAN_MOTION":13.19724535,"ECCENTRICITY":0.0001668,"INCLINATION":87.9174,"RA_OF_ASC_NODE":306.5666,"ARG_OF_PERICENTER":94.8951,"MEAN_ANOMALY":265.2372,"EPHEMERIS_TYPE":0,"CLASSIFICATION_TYPE":"U","NORAD_CAT_ID":54140,"ELEMENT_SET_NO":999,"REV_AT_EPOCH":17574,"BSTAR":4.9911000000000004e-05,"MEAN_MOTION_DOT":3.3e-07,"MEAN_MOTION_DDOT":0.0},{"OBJECT_NAME":"ONEWEB-0523","OBJECT_ID":"2022-138AE","EPOCH":"2026-06-09T07:15:03.571488","MEAN_MOTION":13.20770914,"ECCENTRICITY":0.0002732,"INCLINATION":87.9194,"RA_OF_ASC_NODE":276.0117,"ARG_OF_PERICENTER":104.2468,"MEAN_ANOMALY":255.8969,"EPHEMERIS_TYPE":0,"CLASSIFICATION_TYPE":"U","NORAD_CAT_ID":54141,"ELEMENT_SET_NO":999,"REV_AT_EPOCH":17826,"BSTAR":9.363500000000001e-05,"MEAN_MOTION_DOT":5.1e-07,"MEAN_MOTION_DDOT":0.0},{"OBJECT_NAME":"ONEWEB-0524","OBJECT_ID":"2022-138AF","EPOCH":"2026-06-09T07:00:31.198464","MEAN_MOTION":13.20770952,"ECCENTRICITY":0.0002376,"INCLINATION":87.9191,"RA_OF_ASC_NODE":276.0109,"ARG_OF_PERICENTER":121.2295,"MEAN_ANOMALY":238.9072,"EPHEMERIS_TYPE":0,"CLASSIFICATION_TYPE":"U","NORAD_CAT_ID":54142,"ELEMENT_SET_NO":999,"REV_AT_EPOCH":17826,"BSTAR":0.00022691,"MEAN_MOTION_DOT":1.05e-06,"MEAN_MOTION_DDOT":0.0},{"OBJECT_NAME":"ONEWEB-0525","OBJECT_ID":"2022-138AG","EPOCH":"2026-06-09T02:59:46.872384","MEAN_MOTION":13.19724794,"ECCENTRICITY":0.0001483,"INCLINATION":87.9169,"RA_OF_ASC_NODE":306.5711,"ARG_OF_PERICENTER":100.5236,"MEAN_ANOMALY":259.6064,"EPHEMERIS_TYPE":0,"CLASSIFICATION_TYPE":"U","NORAD_CAT_ID":54143,"ELEMENT_SET_NO":999,"REV_AT_EPOCH":17576,"BSTAR":0.00013632,"MEAN_MOTION_DOT":6.8e-07,"MEAN_MOTION_DDOT":0.0},{"OBJECT_NAME":"ONEWEB-0526","OBJECT_ID":"2022-138AH","EPOCH":"2026-06-09T03:47:33.110304","MEAN_MOTION":13.19725251,"ECCENTRICITY":0.0001722,"INCLINATION":87.9173,"RA_OF_ASC_NODE":306.5646,"ARG_OF_PERICENTER":100.2944,"MEAN_ANOMALY":259.8383,"EPHEMERIS_TYPE":0,"CLASSIFICATION_TYPE":"U","NORAD_CAT_ID":54144,"ELEMENT_SET_NO":999,"REV_AT_EPOCH":17574,"BSTAR":-4.5124e-05,"MEAN_MOTION_DOT":-5e-08,"MEAN_MOTION_DDOT":0.0},{"OBJECT_NAME":"ONEWEB-0529","OBJECT_ID":"2022-138AJ","EPOCH":"2026-06-09T03:52:05.467296","MEAN_MOTION":13.19723915,"ECCENTRICITY":0.0001591,"INCLINATION":87.9165,"RA_OF_ASC_NODE":306.5737,"ARG_OF_PERICENTER":98.0715,"MEAN_ANOMALY":262.0599,"EPHEMERIS_TYPE":0,"CLASSIFICATION_TYPE":"U","NORAD_CAT_ID":54145,"ELEMENT_SET_NO":999,"REV_AT_EPOCH":17576,"BSTAR":-8.332000000000001e-05,"MEAN_MOTION_DOT":-2e-07,"MEAN_MOTION_DDOT":0.0},{"OBJECT_NAME":"ONEWEB-0531","OBJECT_ID":"2022-138AK","EPOCH":"2026-06-09T06:41:08.632032","MEAN_MOTION":13.20771362,"ECCENTRICITY":0.0002736,"INCLINATION":87.9188,"RA_OF_ASC_NODE":276.0115,"ARG_OF_PERICENTER":110.1714,"MEAN_ANOMALY":249.9714,"EPHEMERIS_TYPE":0,"CLASSIFICATION_TYPE":"U","NORAD_CAT_ID":54146,"ELEMENT_SET_NO":999,"REV_AT_EPOCH":17826,"BSTAR":0.00014698,"MEAN_MOTION_DOT":7.3e-07,"MEAN_MOTION_DDOT":0.0},{"OBJECT_NAME":"ONEWEB-0535","OBJECT_ID":"2022-138AL","EPOCH":"2026-06-09T02:50:40.851168","MEAN_MOTION":13.19724931,"ECCENTRICITY":0.0002155,"INCLINATION":87.9171,"RA_OF_ASC_NODE":306.5658,"ARG_OF_PERICENTER":96.6961,"MEAN_ANOMALY":263.4417,"EPHEMERIS_TYPE":0,"CLASSIFICATION_TYPE":"U","NORAD_CAT_ID":54147,"ELEMENT_SET_NO":999,"REV_AT_EPOCH":17577,"BSTAR":8.7005e-05,"MEAN_MOTION_DOT":4.8e-07,"MEAN_MOTION_DDOT":0.0},{"OBJECT_NAME":"ONEWEB-0536","OBJECT_ID":"2022-138AM","EPOCH":"2026-06-09T06:21:43.887456","MEAN_MOTION":13.20770801,"ECCENTRICITY":0.0002789,"INCLINATION":87.9176,"RA_OF_ASC_NODE":276.0375,"ARG_OF_PERICENTER":114.2033,"MEAN_ANOMALY":245.9392,"EPHEMERIS_TYPE":0,"CLASSIFICATION_TYPE":"U","NORAD_CAT_ID":54148,"ELEMENT_SET_NO":999,"REV_AT_EPOCH":17825,"BSTAR":0.00016224,"MEAN_MOTION_DOT":7.9e-07,"MEAN_MOTION_DDOT":0.0},{"OBJECT_NAME":"ONEWEB-0527","OBJECT_ID":"2022-166A","EPOCH":"2026-06-09T07:17:06.497952","MEAN_MOTION":13.20544078,"ECCENTRICITY":0.0002144,"INCLINATION":87.9254,"RA_OF_ASC_NODE":245.5655,"ARG_OF_PERICENTER":94.099,"MEAN_ANOMALY":266.0388,"EPHEMERIS_TYPE":0,"CLASSIFICATION_TYPE":"U","NORAD_CAT_ID":54642,"ELEMENT_SET_NO":999,"REV_AT_EPOCH":17049,"BSTAR":0.09449,"MEAN_MOTION_DOT":0.00038465,"MEAN_MOTION_DDOT":0.0},{"OBJECT_NAME":"ONEWEB-0528","OBJECT_ID":"2022-166B","EPOCH":"2026-06-09T07:18:55.757664","MEAN_MOTION":13.21668901,"ECCENTRICITY":0.0001775,"INCLINATION":87.9255,"RA_OF_ASC_NODE":245.5677,"ARG_OF_PERICENTER":102.3086,"MEAN_ANOMALY":257.8247,"EPHEMERIS_TYPE":0,"CLASSIFICATION_TYPE":"U","NORAD_CAT_ID":54643,"ELEMENT_SET_NO":999,"REV_AT_EPOCH":17050,"BSTAR":-0.00015712000000000001,"MEAN_MOTION_DOT":-5.2e-07,"MEAN_MOTION_DDOT":0.0},{"OBJECT_NAME":"ONEWEB-0539","OBJECT_ID":"2022-166C","EPOCH":"2026-06-09T06:24:47.139264","MEAN_MOTION":13.21826581,"ECCENTRICITY":0.0002052,"INCLINATION":87.9264,"RA_OF_ASC_NODE":245.5466,"ARG_OF_PERICENTER":93.7292,"MEAN_ANOMALY":266.4077,"EPHEMERIS_TYPE":0,"CLASSIFICATION_TYPE":"U","NORAD_CAT_ID":54644,"ELEMENT_SET_NO":999,"REV_AT_EPOCH":17049,"BSTAR":0.00019577,"MEAN_MOTION_DOT":9.4e-07,"MEAN_MOTION_DDOT":0.0},{"OBJECT_NAME":"ONEWEB-0540","OBJECT_ID":"2022-166D","EPOCH":"2026-06-09T06:34:40.090368","MEAN_MOTION":13.21826471,"ECCENTRICITY":0.0002069,"INCLINATION":87.9258,"RA_OF_ASC_NODE":245.5761,"ARG_OF_PERICENTER":96.1899,"MEAN_ANOMALY":263.947,"EPHEMERIS_TYPE":0,"CLASSIFICATION_TYPE":"U","NORAD_CAT_ID":54645,"ELEMENT_SET_NO":999,"REV_AT_EPOCH":17048,"BSTAR":0.00021517000000000002,"MEAN_MOTION_DOT":1.02e-06,"MEAN_MOTION_DDOT":0.0},{"OBJECT_NAME":"ONEWEB-0542","OBJECT_ID":"2022-166E","EPOCH":"2026-06-09T06:39:18.689760","MEAN_MOTION":13.21826968,"ECCENTRICITY":0.0002091,"INCLINATION":87.9264,"RA_OF_ASC_NODE":245.543,"ARG_OF_PERICENTER":91.4277,"MEAN_ANOMALY":268.7096,"EPHEMERIS_TYPE":0,"CLASSIFICATION_TYPE":"U","NORAD_CAT_ID":54646,"ELEMENT_SET_NO":999,"REV_AT_EPOCH":17049,"BSTAR":4.6595e-05,"MEAN_MOTION_DOT":3.2e-07,"MEAN_MOTION_DDOT":0.0},{"OBJECT_NAME":"ONEWEB-0545","OBJECT_ID":"2022-166F","EPOCH":"2026-06-09T05:48:26.284896","MEAN_MOTION":13.2182814,"ECCENTRICITY":0.0002274,"INCLINATION":87.9254,"RA_OF_ASC_NODE":245.5623,"ARG_OF_PERICENTER":87.2927,"MEAN_ANOMALY":272.8467,"EPHEMERIS_TYPE":0,"CLASSIFICATION_TYPE":"U","NORAD_CAT_ID":54647,"ELEMENT_SET_NO":999,"REV_AT_EPOCH":17045,"BSTAR":3.1388000000000003e-06,"MEAN_MOTION_DOT":1.4e-07,"MEAN_MOTION_DDOT":0.0}]